{
    "links": {
        "self": "http://www.neowsapp.com/rest/v1/neo/54073335?api_key=iIulBulltgU6a56xZRHN4H3l9WmuAYTsLGpBGhQ2"
    },
    "id": "54073335",
    "neo_reference_id": "54073335",
    "name": "(2020 TG7)",
    "designation": "2020 TG7",
    "nasa_jpl_url": "http://ssd.jpl.nasa.gov/sbdb.cgi?sstr=54073335",
    "absolute_magnitude_h": 24.306,
    "estimated_diameter": {
        "kilometers": {
            "estimated_diameter_min": 0.0365893738,
            "estimated_diameter_max": 0.081816327
        },
        "meters": {
            "estimated_diameter_min": 36.5893737734,
            "estimated_diameter_max": 81.8163270115
        },
        "miles": {
            "estimated_diameter_min": 0.0227355758,
            "estimated_diameter_max": 0.0508382929
        },
        "feet": {
            "estimated_diameter_min": 120.0438810508,
            "estimated_diameter_max": 268.4262783125
        }
    },
    "is_potentially_hazardous_asteroid": false,
    "close_approach_data": [
        {
            "close_approach_date": "2020-10-20",
            "close_approach_date_full": "2020-Oct-20 05:08",
            "epoch_date_close_approach": 1603170480000,
            "relative_velocity": {
                "kilometers_per_second": "13.2372711168",
                "kilometers_per_hour": "47654.1760206211",
                "miles_per_hour": "29610.4517612576"
            },
            "miss_distance": {
                "astronomical": "0.1417929647",
                "lunar": "55.1574632683",
                "kilometers": "21211925.500105189",
                "miles": "13180479.3188180482"
            },
            "orbiting_body": "Earth"
        }
    ],
    "orbital_data": {
        "orbit_id": "2",
        "orbit_determination_date": "2020-10-21 07:41:13",
        "first_observation_date": "2020-10-15",
        "last_observation_date": "2020-10-21",
        "data_arc_in_days": 6,
        "observations_used": 17,
        "orbit_uncertainty": "8",
        "minimum_orbit_intersection": ".126071",
        "jupiter_tisserand_invariant": "5.078",
        "epoch_osculation": "2459138.5",
        "eccentricity": ".101294845651733",
        "semi_major_axis": "1.237525169865236",
        "inclination": "25.78511269043585",
        "ascending_node_longitude": "28.48598836001134",
        "orbital_period": "502.8396182452019",
        "perihelion_distance": "1.112170248793602",
        "perihelion_argument": "334.2648358525533",
        "aphelion_distance": "1.362880090936869",
        "perihelion_time": "2459111.191997212019",
        "mean_anomaly": "19.55072879495999",
        "mean_motion": ".7159340412681079",
        "equinox": "J2000",
        "orbit_class": {
            "orbit_class_type": "AMO",
            "orbit_class_description": "Near-Earth asteroid orbits similar to that of 1221 Amor",
            "orbit_class_range": "1.017 AU < q (perihelion) < 1.3 AU"
        }
    },
    "is_sentry_object": false
}